{"type": "FeatureCollection", "features": [ {"type": "Feature", "properties": {"norad_id": 31441, "name": "FENGYUN 1C DEB", "group": "fengyun-1c-debris", "lat": -30.150277300758393, "lon": -134.48234763210573, "alt_km": 582.4643098058796, "timestamp": "2025-12-21T20:41:08.242708+00:00", "meta": {"OBJECT_NAME": "FENGYUN 1C DEB", "OBJECT_ID": "1999-025BUD", "EPOCH": "2025-12-20T20:24:46.910016", "MEAN_MOTION": 14.75706647, "ECCENTRICITY": 0.01016008, "INCLINATION": 99.3109, "RA_OF_ASC_NODE": 218.8859, "ARG_OF_PERICENTER": 310.6714, "MEAN_ANOMALY": 48.5694, "EPHEMERIS_TYPE": 0, "CLASSIFICATION_TYPE": "U", "NORAD_CAT_ID": 31441, "ELEMENT_SET_NO": 999, "REV_AT_EPOCH": 64210, "BSTAR": 0.0031315146, "MEAN_MOTION_DOT": 0.00023297, "MEAN_MOTION_DDOT": 0}, "tle": {"line1": "1 31441U 99025BUD 25354.85054294  .00023297  00000+0  31315-2 0  9991", "line2": "2 31441  99.3109 218.8859 0101600 310.6714  48.5694 14.75706647642103"}}, "geometry": {"type": "Point", "coordinates": [-134.48234763210573, -30.150277300758393]}}, {"type": "Feature", "properties": {"norad_id": 31442, "name": "FENGYUN 1C DEB", "group": "fengyun-1c-debris", "lat": 40.58235473173574, "lon": 74.33118522729936, "alt_km": 743.2255704461577, "timestamp": "2025-12-21T20:41:08.242717+00:00", "meta": {"OBJECT_NAME": "FENGYUN 1C DEB", "OBJECT_ID": "1999-025BUE", "EPOCH": "2025-12-21T12:07:24.943584", "MEAN_MOTION": 14.33945698, "ECCENTRICITY": 0.0078669, "INCLINATION": 98.5303, "RA_OF_ASC_NODE": 81.3658, "ARG_OF_PERICENTER": 346.6775, "MEAN_ANOMALY": 13.2332, "EPHEMERIS_TYPE": 0, "CLASSIFICATION_TYPE": "U", "NORAD_CAT_ID": 31442, "ELEMENT_SET_NO": 999, "REV_AT_EPOCH": 97486, "BSTAR": 0.00027837552, "MEAN_MOTION_DOT": 7.6e-06, "MEAN_MOTION_DDOT": 0}, "tle": {"line1": "1 31442U 99025BUE 25355.50514981  .00000760  00000+0  27838-3 0  9995", "line2": "2 31442  98.5303  81.3658 0078669 346.6775  13.2332 14.33945698974869"}}, "geometry": {"type": "Point", "coordinates": [74.33118522729936, 40.58235473173574]}}, {"type": "Feature", "properties": {"norad_id": 31443, "name": "FENGYUN 1C DEB", "group": "fengyun-1c-debris", "lat": -52.46603222136702, "lon": -96.02565300389743, "alt_km": 866.0240371449408, "timestamp": "2025-12-21T20:41:08.242726+00:00", "meta": {"OBJECT_NAME": "FENGYUN 1C DEB", "OBJECT_ID": "1999-025BUF", "EPOCH": "2025-12-20T00:31:43.149216", "MEAN_MOTION": 14.4875373, "ECCENTRICITY": 0.01915269, "INCLINATION": 99.2114, "RA_OF_ASC_NODE": 94.1613, "ARG_OF_PERICENTER": 76.607, "MEAN_ANOMALY": 285.6392, "EPHEMERIS_TYPE": 0, "CLASSIFICATION_TYPE": "U", "NORAD_CAT_ID": 31443, "ELEMENT_SET_NO": 999, "REV_AT_EPOCH": 67047, "BSTAR": 0.00066428156, "MEAN_MOTION_DOT": 3.104e-05, "MEAN_MOTION_DDOT": 0}, "tle": {"line1": "1 31443U 99025BUF 25354.02202719  .00003104  00000+0  66428-3 0  9998", "line2": "2 31443  99.2114  94.1613 0191526  76.6070 285.6392 14.48753730670478"}}, "geometry": {"type": "Point", "coordinates": [-96.02565300389743, -52.46603222136702]}}, {"type": "Feature", "properties": {"norad_id": 31444, "name": "FENGYUN 1C DEB", "group": "fengyun-1c-debris", "lat": -0.5676326031316746, "lon": 118.66321978708886, "alt_km": 695.6797957856079, "timestamp": "2025-12-21T20:41:08.242735+00:00", "meta": {"OBJECT_NAME": "FENGYUN 1C DEB", "OBJECT_ID": "1999-025BUG", "EPOCH": "2025-12-15T13:34:49.333728", "MEAN_MOTION": 14.69963952, "ECCENTRICITY": 0.00627859, "INCLINATION": 98.9275, "RA_OF_ASC_NODE": 291.8692, "ARG_OF_PERICENTER": 63.9063, "MEAN_ANOMALY": 296.8584, "EPHEMERIS_TYPE": 0, "CLASSIFICATION_TYPE": "U", "NORAD_CAT_ID": 31444, "ELEMENT_SET_NO": 999, "REV_AT_EPOCH": 97530, "BSTAR": 0.00094331949, "MEAN_MOTION_DOT": 5.769e-05, "MEAN_MOTION_DDOT": 0}, "tle": {"line1": "1 31444U 99025BUG 25349.56584877  .00005769  00000+0  94332-3 0  9994", "line2": "2 31444  98.9275 291.8692 0062785  63.9063 296.8584 14.69963952975300"}}, "geometry": {"type": "Point", "coordinates": [118.66321978708886, -0.5676326031316746]}}, {"type": "Feature", "properties": {"norad_id": 31447, "name": "FENGYUN 1C DEB", "group": "fengyun-1c-debris", "lat": 27.30857193096322, "lon": -137.9812631534327, "alt_km": 975.9783027474377, "timestamp": "2025-12-21T20:41:08.242744+00:00", "meta": {"OBJECT_NAME": "FENGYUN 1C DEB", "OBJECT_ID": "1999-025BUK", "EPOCH": "2025-12-14T21:01:38.356896", "MEAN_MOTION": 14.2403744, "ECCENTRICITY": 0.02304397, "INCLINATION": 98.9919, "RA_OF_ASC_NODE": 30.1793, "ARG_OF_PERICENTER": 349.1545, "MEAN_ANOMALY": 10.471, "EPHEMERIS_TYPE": 0, "CLASSIFICATION_TYPE": "U", "NORAD_CAT_ID": 31447, "ELEMENT_SET_NO": 999, "REV_AT_EPOCH": 64882, "BSTAR": 0.00018562598, "MEAN_MOTION_DOT": 5.08e-06, "MEAN_MOTION_DDOT": 0}, "tle": {"line1": "1 31447U 99025BUK 25348.87613839  .00000508  00000+0  18563-3 0  9999", "line2": "2 31447  98.9919  30.1793 0230439 349.1545  10.4710 14.24037440648821"}}, "geometry": {"type": "Point", "coordinates": [-137.9812631534327, 27.30857193096322]}}, {"type": "Feature", "properties": {"norad_id": 31448, "name": "FENGYUN 1C DEB", "group": "fengyun-1c-debris", "lat": -66.71610999456342, "lon": 27.24191366712406, "alt_km": 823.7184827883148, "timestamp": "2025-12-21T20:41:08.242753+00:00", "meta": {"OBJECT_NAME": "FENGYUN 1C DEB", "OBJECT_ID": "1999-025BUL", "EPOCH": "2025-12-20T18:05:54.538080", "MEAN_MOTION": 14.27837488, "ECCENTRICITY": 0.00593925, "INCLINATION": 98.4998, "RA_OF_ASC_NODE": 5.8293, "ARG_OF_PERICENTER": 180.4564, "MEAN_ANOMALY": 179.6573, "EPHEMERIS_TYPE": 0, "CLASSIFICATION_TYPE": "U", "NORAD_CAT_ID": 31448, "ELEMENT_SET_NO": 999, "REV_AT_EPOCH": 64418, "BSTAR": 0.00043686395, "MEAN_MOTION_DOT": 1.058e-05, "MEAN_MOTION_DDOT": 0}, "tle": {"line1": "1 31448U 99025BUL 25354.75410345  .00001058  00000+0  43686-3 0  9996", "line2": "2 31448  98.4998   5.8293 0059392 180.4564 179.6573 14.27837488644185"}}, "geometry": {"type": "Point", "coordinates": [27.24191366712406, -66.71610999456342]}}, {"type": "Feature", "properties": {"norad_id": 31449, "name": "FENGYUN 1C DEB", "group": "fengyun-1c-debris", "lat": 71.28311397612624, "lon": -99.34862759683897, "alt_km": 844.4899954709599, "timestamp": "2025-12-21T20:41:08.242762+00:00", "meta": {"OBJECT_NAME": "FENGYUN 1C DEB", "OBJECT_ID": "1999-025BUM", "EPOCH": "2025-12-20T10:40:43.619520", "MEAN_MOTION": 14.33719628, "ECCENTRICITY": 0.01441603, "INCLINATION": 98.5539, "RA_OF_ASC_NODE": 52.876, "ARG_OF_PERICENTER": 245.7554, "MEAN_ANOMALY": 112.8511, "EPHEMERIS_TYPE": 0, "CLASSIFICATION_TYPE": "U", "NORAD_CAT_ID": 31449, "ELEMENT_SET_NO": 999, "REV_AT_EPOCH": 97747, "BSTAR": 0.00016710121, "MEAN_MOTION_DOT": 4.73e-06, "MEAN_MOTION_DDOT": 0}, "tle": {"line1": "1 31449U 99025BUM 25354.44494930  .00000473  00000+0  16710-3 0  9993", "line2": "2 31449  98.5539  52.8760 0144160 245.7554 112.8511 14.33719628977475"}}, "geometry": {"type": "Point", "coordinates": [-99.34862759683897, 71.28311397612624]}}, {"type": "Feature", "properties": {"norad_id": 31451, "name": "FENGYUN 1C DEB", "group": "fengyun-1c-debris", "lat": -58.06440666311681, "lon": 52.0775238718824, "alt_km": 863.7720090347966, "timestamp": "2025-12-21T20:41:08.242771+00:00", "meta": {"OBJECT_NAME": "FENGYUN 1C DEB", "OBJECT_ID": "1999-025BUP", "EPOCH": "2025-12-17T01:35:52.740960", "MEAN_MOTION": 14.13630438, "ECCENTRICITY": 0.00314143, "INCLINATION": 98.7632, "RA_OF_ASC_NODE": 33.0517, "ARG_OF_PERICENTER": 198.9237, "MEAN_ANOMALY": 191.5319, "EPHEMERIS_TYPE": 0, "CLASSIFICATION_TYPE": "U", "NORAD_CAT_ID": 31451, "ELEMENT_SET_NO": 999, "REV_AT_EPOCH": 96071, "BSTAR": 0.00034950868, "MEAN_MOTION_DOT": 6.19e-06, "MEAN_MOTION_DDOT": 0}, "tle": {"line1": "1 31451U 99025BUP 25351.06658265  .00000619  00000+0  34951-3 0  9993", "line2": "2 31451  98.7632  33.0517 0031414 198.9237 191.5319 14.13630438960717"}}, "geometry": {"type": "Point", "coordinates": [52.0775238718824, -58.06440666311681]}}, {"type": "Feature", "properties": {"norad_id": 31452, "name": "FENGYUN 1C DEB", "group": "fengyun-1c-debris", "lat": -67.14390034037748, "lon": 141.34485448836844, "alt_km": 873.5638694566715, "timestamp": "2025-12-21T20:41:08.242780+00:00", "meta": {"OBJECT_NAME": "FENGYUN 1C DEB", "OBJECT_ID": "1999-025BUQ", "EPOCH": "2025-12-17T05:13:17.668704", "MEAN_MOTION": 14.15174584, "ECCENTRICITY": 0.00409624, "INCLINATION": 98.6577, "RA_OF_ASC_NODE": 338.0277, "ARG_OF_PERICENTER": 115.448, "MEAN_ANOMALY": 245.0941, "EPHEMERIS_TYPE": 0, "CLASSIFICATION_TYPE": "U", "NORAD_CAT_ID": 31452, "ELEMENT_SET_NO": 999, "REV_AT_EPOCH": 96269, "BSTAR": 0.00032143342, "MEAN_MOTION_DOT": 5.87e-06, "MEAN_MOTION_DDOT": 0}, "tle": {"line1": "1 31452U 99025BUQ 25351.21756561  .00000587  00000+0  32143-3 0  9994", "line2": "2 31452  98.6577 338.0277 0040962 115.4480 245.0941 14.15174584962690"}}, "geometry": {"type": "Point", "coordinates": [141.34485448836844, -67.14390034037748]}}, {"type": "Feature", "properties": {"norad_id": 31455, "name": "FENGYUN 1C DEB", "group": "fengyun-1c-debris", "lat": 71.1099740235827, "lon": -170.14433306610417, "alt_km": 821.039670208107, "timestamp": "2025-12-21T20:41:08.242789+00:00", "meta": {"OBJECT_NAME": "FENGYUN 1C DEB", "OBJECT_ID": "1999-025BUT", "EPOCH": "2025-12-20T05:04:03.520704", "MEAN_MOTION": 14.11438755, "ECCENTRICITY": 0.0218316, "INCLINATION": 98.5747, "RA_OF_ASC_NODE": 342.1137, "ARG_OF_PERICENTER": 30.0004, "MEAN_ANOMALY": 331.3471, "EPHEMERIS_TYPE": 0, "CLASSIFICATION_TYPE": "U", "NORAD_CAT_ID": 31455, "ELEMENT_SET_NO": 999, "REV_AT_EPOCH": 96209, "BSTAR": 0.0002155, "MEAN_MOTION_DOT": 4.46e-06, "MEAN_MOTION_DDOT": 0}, "tle": {"line1": "1 31455U 99025BUT 25354.21115186  .00000446  00000+0  21550-3 0  9996", "line2": "2 31455  98.5747 342.1137 0218316  30.0004 331.3471 14.11438755962096"}}, "geometry": {"type": "Point", "coordinates": [-170.14433306610417, 71.1099740235827]}}]}